start=new Date('2022-12-14T00:00:00.000Z').valueOf();
sats=[{"MEAN_MOTION":"15.39851153","MEAN_MOTION_DDOT":"0.0000000000000","PERIAPSIS":"445.793","ELEMENT_SET_NO":"999","OBJECT_TYPE":"PAYLOAD","MEAN_ANOMALY":"311.5970","CLASSIFICATION_TYPE":"U","LAUNCH_DATE":"2022-10-20","APOAPSIS":"447.309","FILE":"3698003","MEAN_MOTION_DOT":"-0.01141944","REF_FRAME":"TEME","DECAY_DATE":null,"EPHEMERIS_TYPE":"0","CENTER_NAME":"EARTH","RCS_SIZE":"LARGE","INCLINATION":"53.2175","TLE_LINE2":"2 54081  53.2175 240.8239 0001111  87.8700 311.5970 15.39851153  1306","TLE_LINE1":"1 54081U 22136AG  22347.91667824 -.01141944  00000-0 -31024-1 0  9990","RA_OF_ASC_NODE":"240.8239","PERIOD":"93.516","ECCENTRICITY":"0.00011110","EPOCH":"2022-12-13T22:00:00.999936","OBJECT_NAME":"STARLINK-5165","SEMIMAJOR_AXIS":"6824.686","BSTAR":"-0.03102400000000","MEAN_ELEMENT_THEORY":"SGP4","ARG_OF_PERICENTER":"87.8700","TIME_SYSTEM":"UTC","OBJECT_ID":"2022-136AG","REV_AT_EPOCH":"130","COUNTRY_CODE":"US","SITE":"AFETR","NORAD_CAT_ID":"54081","GP_ID":"220322515"},{"LAUNCH_DATE":"2022-10-20","ELEMENT_SET_NO":"999","OBJECT_TYPE":"PAYLOAD","MEAN_ANOMALY":"332.7944","CLASSIFICATION_TYPE":"U","MEAN_MOTION":"15.40087797","MEAN_MOTION_DDOT":"0.0000000000000","PERIAPSIS":"445.129","TLE_LINE2":"2 54082  53.2181 242.0108 0001059 113.7036 332.7944 15.40087797  1308","EPHEMERIS_TYPE":"0","RCS_SIZE":"LARGE","CENTER_NAME":"EARTH","INCLINATION":"53.2181","REF_FRAME":"TEME","MEAN_MOTION_DOT":"0.00060858","DECAY_DATE":null,"APOAPSIS":"446.575","FILE":"3698003","OBJECT_NAME":"STARLINK-5210","SEMIMAJOR_AXIS":"6823.987","ECCENTRICITY":"0.00010590","EPOCH":"2022-12-13T16:00:00.999936","TLE_LINE1":"1 54082U 22136AH  22347.66667824  .00060858  00000-0  14962-2 0  9997","RA_OF_ASC_NODE":"242.0108","PERIOD":"93.501","SITE":"AFETR","NORAD_CAT_ID":"54082","GP_ID":"220323766","TIME_SYSTEM":"UTC","ARG_OF_PERICENTER":"113.7036","OBJECT_ID":"2022-136AH","REV_AT_EPOCH":"130","COUNTRY_CODE":"US","BSTAR":"0.00149620000000","MEAN_ELEMENT_THEORY":"SGP4"},{"PERIOD":"93.481","RA_OF_ASC_NODE":"240.7958","TLE_LINE1":"1 54083U 22136AJ  22347.91667824 -.01142233  00000-0 -30457-1 0  9993","EPOCH":"2022-12-13T22:00:00.999936","ECCENTRICITY":"0.00011270","SEMIMAJOR_AXIS":"6823.023","OBJECT_NAME":"STARLINK-5178","MEAN_ELEMENT_THEORY":"SGP4","BSTAR":"-0.03045700000000","REV_AT_EPOCH":"130","COUNTRY_CODE":"US","TIME_SYSTEM":"UTC","ARG_OF_PERICENTER":"84.8659","OBJECT_ID":"2022-136AJ","NORAD_CAT_ID":"54083","GP_ID":"220323509","SITE":"AFETR","PERIAPSIS":"444.119","MEAN_MOTION_DDOT":"0.0000000000000","MEAN_MOTION":"15.40414221","MEAN_ANOMALY":"328.6434","CLASSIFICATION_TYPE":"U","ELEMENT_SET_NO":"999","OBJECT_TYPE":"PAYLOAD","LAUNCH_DATE":"2022-10-20","FILE":"3698003","APOAPSIS":"445.657","REF_FRAME":"TEME","MEAN_MOTION_DOT":"-0.01142233","DECAY_DATE":null,"INCLINATION":"53.2175","EPHEMERIS_TYPE":"0","CENTER_NAME":"EARTH","RCS_SIZE":"LARGE","TLE_LINE2":"2 54083  53.2175 240.7958 0001127  84.8659 328.6434 15.40414221  1309"},{"TLE_LINE2":"2 54084  53.2175 240.8134 0001277  57.1579 347.2987 15.40065346  1307","INCLINATION":"53.2175","CENTER_NAME":"EARTH","RCS_SIZE":"LARGE","EPHEMERIS_TYPE":"0","DECAY_DATE":null,"REF_FRAME":"TEME","MEAN_MOTION_DOT":"-0.01142454","FILE":"3698003","APOAPSIS":"446.790","LAUNCH_DATE":"2022-10-20","MEAN_ANOMALY":"347.2987","CLASSIFICATION_TYPE":"U","ELEMENT_SET_NO":"999","OBJECT_TYPE":"PAYLOAD","PERIAPSIS":"445.047","MEAN_MOTION_DDOT":"0.0000000000000","MEAN_MOTION":"15.40065346","GP_ID":"220322265","NORAD_CAT_ID":"54084","SITE":"AFETR","COUNTRY_CODE":"US","REV_AT_EPOCH":"130","OBJECT_ID":"2022-136AK","TIME_SYSTEM":"UTC","ARG_OF_PERICENTER":"57.1579","MEAN_ELEMENT_THEORY":"SGP4","BSTAR":"-0.03081800000000","SEMIMAJOR_AXIS":"6824.053","OBJECT_NAME":"STARLINK-5183","EPOCH":"2022-12-13T22:00:00.999936","ECCENTRICITY":"0.00012770","PERIOD":"93.503","RA_OF_ASC_NODE":"240.8134","TLE_LINE1":"1 54084U 22136AK  22347.91667824 -.01142454  00000-0 -30818-1 0  9990"},{"PERIOD":"93.463","RA_OF_ASC_NODE":"240.7839","TLE_LINE1":"1 54085U 22136AL  22347.91667824 -.01141966  00000-0 -30146-1 0  9992","SEMIMAJOR_AXIS":"6822.137","OBJECT_NAME":"STARLINK-5166","EPOCH":"2022-12-13T22:00:00.999936","ECCENTRICITY":"0.00011530","MEAN_ELEMENT_THEORY":"SGP4","BSTAR":"-0.03014600000000","NORAD_CAT_ID":"54085","GP_ID":"220323015","SITE":"AFETR","COUNTRY_CODE":"US","REV_AT_EPOCH":"130","OBJECT_ID":"2022-136AL","ARG_OF_PERICENTER":"105.7110","TIME_SYSTEM":"UTC","CLASSIFICATION_TYPE":"U","MEAN_ANOMALY":"313.7648","ELEMENT_SET_NO":"999","OBJECT_TYPE":"PAYLOAD","PERIAPSIS":"443.216","MEAN_MOTION_DDOT":"0.0000000000000","MEAN_MOTION":"15.40714214","LAUNCH_DATE":"2022-10-20","DECAY_DATE":null,"MEAN_MOTION_DOT":"-0.01141966","REF_FRAME":"TEME","FILE":"3698003","APOAPSIS":"444.789","TLE_LINE2":"2 54085  53.2175 240.7839 0001153 105.7110 313.7648 15.40714214  1300","INCLINATION":"53.2175","RCS_SIZE":"LARGE","CENTER_NAME":"EARTH","EPHEMERIS_TYPE":"0"},{"ELEMENT_SET_NO":"999","OBJECT_TYPE":"PAYLOAD","CLASSIFICATION_TYPE":"U","MEAN_ANOMALY":"347.4055","MEAN_MOTION":"15.73211357","MEAN_MOTION_DDOT":"0.0000000000000","PERIAPSIS":"347.185","LAUNCH_DATE":"2022-10-20","DECAY_DATE":null,"MEAN_MOTION_DOT":"0.00002434","REF_FRAME":"TEME","APOAPSIS":"352.270","FILE":"3697190","TLE_LINE2":"2 54086  53.2128 241.4767 0003779  12.7060 347.4055 15.73211357  8505","CENTER_NAME":"EARTH","RCS_SIZE":"LARGE","EPHEMERIS_TYPE":"0","INCLINATION":"53.2128","TLE_LINE1":"1 54086U 22136AM  22347.44364264  .00002434  00000-0  21770-4 0  9992","PERIOD":"91.533","RA_OF_ASC_NODE":"241.4767","OBJECT_NAME":"STARLINK-5211","SEMIMAJOR_AXIS":"6727.863","ECCENTRICITY":"0.00037790","EPOCH":"2022-12-13T10:38:50.724096","BSTAR":"0.00002177000000","MEAN_ELEMENT_THEORY":"SGP4","SITE":"AFETR","GP_ID":"220281069","NORAD_CAT_ID":"54086","OBJECT_ID":"2022-136AM","ARG_OF_PERICENTER":"12.7060","TIME_SYSTEM":"UTC","COUNTRY_CODE":"US","REV_AT_EPOCH":"850"},{"LAUNCH_DATE":"2022-10-20","MEAN_ANOMALY":"353.2351","CLASSIFICATION_TYPE":"U","ELEMENT_SET_NO":"999","OBJECT_TYPE":"PAYLOAD","PERIAPSIS":"442.308","MEAN_MOTION_DDOT":"0.0000000000000","MEAN_MOTION":"15.41014433","TLE_LINE2":"2 54087  53.2175 240.7723 0001185  72.0840 353.2351 15.41014433  1302","INCLINATION":"53.2175","EPHEMERIS_TYPE":"0","CENTER_NAME":"EARTH","RCS_SIZE":"LARGE","MEAN_MOTION_DOT":"-0.01142529","REF_FRAME":"TEME","DECAY_DATE":null,"FILE":"3698003","APOAPSIS":"443.924","SEMIMAJOR_AXIS":"6821.251","OBJECT_NAME":"STARLINK-5184","EPOCH":"2022-12-13T22:00:00.999936","ECCENTRICITY":"0.00011850","RA_OF_ASC_NODE":"240.7723","PERIOD":"93.445","TLE_LINE1":"1 54087U 22136AN  22347.91667824 -.01142529  00000-0 -29861-1 0  9992","GP_ID":"220324010","NORAD_CAT_ID":"54087","SITE":"AFETR","REV_AT_EPOCH":"130","COUNTRY_CODE":"US","TIME_SYSTEM":"UTC","ARG_OF_PERICENTER":"72.0840","OBJECT_ID":"2022-136AN","MEAN_ELEMENT_THEORY":"SGP4","BSTAR":"-0.02986100000000"},{"TLE_LINE1":"1 54088U 22136AP  22347.91667824 -.01142515  00000-0 -30769-1 0  9997","PERIOD":"93.500","RA_OF_ASC_NODE":"240.8075","ECCENTRICITY":"0.00015250","EPOCH":"2022-12-13T22:00:00.999936","OBJECT_NAME":"STARLINK-5153","SEMIMAJOR_AXIS":"6823.912","BSTAR":"-0.03076900000000","MEAN_ELEMENT_THEORY":"SGP4","OBJECT_ID":"2022-136AP","TIME_SYSTEM":"UTC","ARG_OF_PERICENTER":"41.8325","COUNTRY_CODE":"US","REV_AT_EPOCH":"130","SITE":"AFETR","NORAD_CAT_ID":"54088","GP_ID":"220322765","MEAN_MOTION":"15.40113171","MEAN_MOTION_DDOT":"0.0000000000000","PERIAPSIS":"444.736","OBJECT_TYPE":"PAYLOAD","ELEMENT_SET_NO":"999","MEAN_ANOMALY":"5.6235","CLASSIFICATION_TYPE":"U","LAUNCH_DATE":"2022-10-20","APOAPSIS":"446.818","FILE":"3698003","DECAY_DATE":null,"MEAN_MOTION_DOT":"-0.01142515","REF_FRAME":"TEME","CENTER_NAME":"EARTH","RCS_SIZE":"LARGE","EPHEMERIS_TYPE":"0","INCLINATION":"53.2175","TLE_LINE2":"2 54088  53.2175 240.8075 0001525  41.8325   5.6235 15.40113171  1301"},{"EPOCH":"2022-12-13T22:00:00.999936","ECCENTRICITY":"0.00009740","SEMIMAJOR_AXIS":"6819.320","OBJECT_NAME":"STARLINK-5143","PERIOD":"93.405","RA_OF_ASC_NODE":"240.7398","TLE_LINE1":"1 54089U 22136AQ  22347.91667824 -.00261505  00000-0 -63101-2 0  9995","REV_AT_EPOCH":"130","COUNTRY_CODE":"US","TIME_SYSTEM":"UTC","ARG_OF_PERICENTER":"76.6143","OBJECT_ID":"2022-136AQ","GP_ID":"220322516","NORAD_CAT_ID":"54089","SITE":"AFETR","MEAN_ELEMENT_THEORY":"SGP4","BSTAR":"-0.00631010000000","LAUNCH_DATE":"2022-10-20","PERIAPSIS":"440.521","MEAN_MOTION_DDOT":"0.0000000000000","MEAN_MOTION":"15.41669065","CLASSIFICATION_TYPE":"U","MEAN_ANOMALY":"5.4695","ELEMENT_SET_NO":"999","OBJECT_TYPE":"PAYLOAD","INCLINATION":"53.2168","EPHEMERIS_TYPE":"0","RCS_SIZE":"LARGE","CENTER_NAME":"EARTH","TLE_LINE2":"2 54089  53.2168 240.7398 0000974  76.6143   5.4695 15.41669065  1309","FILE":"3698003","APOAPSIS":"441.849","MEAN_MOTION_DOT":"-0.00261505","REF_FRAME":"TEME","DECAY_DATE":null},{"TLE_LINE1":"1 54090U 22136AR  22347.91667824 -.01142615  00000-0 -29267-1 0  9992","PERIOD":"93.408","RA_OF_ASC_NODE":"240.7494","OBJECT_NAME":"STARLINK-5177","SEMIMAJOR_AXIS":"6819.477","ECCENTRICITY":"0.00012600","EPOCH":"2022-12-13T22:00:00.999936","BSTAR":"-0.02926700000000","MEAN_ELEMENT_THEORY":"SGP4","SITE":"AFETR","NORAD_CAT_ID":"54090","GP_ID":"220323767","ARG_OF_PERICENTER":"63.7199","TIME_SYSTEM":"UTC","OBJECT_ID":"2022-136AR","REV_AT_EPOCH":"130","COUNTRY_CODE":"US","OBJECT_TYPE":"PAYLOAD","ELEMENT_SET_NO":"999","CLASSIFICATION_TYPE":"U","MEAN_ANOMALY":"12.8095","MEAN_MOTION":"15.41615926","MEAN_MOTION_DDOT":"0.0000000000000","PERIAPSIS":"440.482","LAUNCH_DATE":"2022-10-20","MEAN_MOTION_DOT":"-0.01142615","REF_FRAME":"TEME","DECAY_DATE":null,"APOAPSIS":"442.201","FILE":"3698003","TLE_LINE2":"2 54090  53.2175 240.7494 0001260  63.7199  12.8095 15.41615926  1306","EPHEMERIS_TYPE":"0","CENTER_NAME":"EARTH","RCS_SIZE":"LARGE","INCLINATION":"53.2175"}];
